{
"type": "FeatureCollection",
"name": "Accessiblite_commune_500",
"crs": { "type": "name", "properties": { "name": "urn:ogc:def:crs:OGC:1.3:CRS84" } },
"features": [
{ "type": "Feature", "properties": { "fid_12": 46.0, "region_id": "B", "region_nom": "Plateaux", "prefecture": "B11", "prefectu_1": "Ogou", "commune_id": "B11058", "commune_no": "Ogou 1", "Oldcanton_": "B11058168", "Oldcanton1": "Houdou", "OldCantonP": 13642.42525, "OldLocalit": 33.0, "Shape_Leng": 68199.071671800004, "Shape_Le_1": 68199.071671800004, "NUMPOINTS": 28.0, "ecart_cant": -1, "ecart_veri": -1, "reclass_ec": "Sous-équipé", "OBJECTID": 1, "Join_Count": 3111, "TARGET_FID": 0, "fid_1": 69, "full_id": "w1138096317", "osm_id": "1138096317", "osm_type": "way", "building": "yes", "access": "3111", "access_1": "5358", "prop_acces": 58.0627099664, "nbre_build": 5358, "nbre_acesb": 3111, "Rclas_prop": "faible accès", "Pop_Homme": 4899, "Pop_Femme": 5295, "Pop_Tot": 10194, "area_km": 150, "score_brut": 10, "Score_norm": 1.0, "score_pond": 0.15, "pop_pond": 0.15, "Part_ZH_AT": 22.5, "part_pond": 0.3, "pond_equip": 0.15 }, "geometry": { "type": "MultiPolygon", "coordinates": [ [ [ [ 1.290121744117246, 7.658569574911692 ], [ 1.288140390097608, 7.657736940504877 ], [ 1.28811787094513, 7.657725122938583 ], [ 1.286286823959009, 7.656764276912501 ], [ 1.283570707656245, 7.657498361869819 ], [ 1.27997368715982, 7.65724143212425 ], [ 1.275569173427328, 7.657094614791726 ], [ 1.272357548754122, 7.656378881758386 ], [ 1.269017459254331, 7.655883374007454 ], [ 1.26578748234862, 7.655699852303414 ], [ 1.233083966851563, 7.645587822338139 ], [ 1.224752094036897, 7.638834234646853 ], [ 1.209978620291806, 7.627749541212675 ], [ 1.205060246306831, 7.617545750346903 ], [ 1.194562821536713, 7.599413834664901 ], [ 1.193314876703739, 7.591118667423328 ], [ 1.181954900717568, 7.579474233510703 ], [ 1.173531267513275, 7.57306933638175 ], [ 1.171182194146491, 7.567802271514473 ], [ 1.170337995419803, 7.564297012496103 ], [ 1.169970952176202, 7.560626584588434 ], [ 1.161969418866394, 7.555267758979694 ], [ 1.150224048190221, 7.554240039397281 ], [ 1.144727582171816, 7.556891923798281 ], [ 1.141732991756906, 7.562727404772911 ], [ 1.144064220128686, 7.573329046699275 ], [ 1.145170144418085, 7.579513894058245 ], [ 1.147713122408957, 7.592040953274537 ], [ 1.148957350290242, 7.596942488590098 ], [ 1.149303373439116, 7.601176938073746 ], [ 1.149925486031748, 7.606561665144621 ], [ 1.150547081286353, 7.61626301677906 ], [ 1.150616233423745, 7.620336103438802 ], [ 1.151376653428308, 7.625444679192605 ], [ 1.151307758371771, 7.631136702774961 ], [ 1.15013267964752, 7.637626029562392 ], [ 1.146466680322508, 7.646689526428162 ], [ 1.140494814129651, 7.659740609587915 ], [ 1.138340462657928, 7.663652555393268 ], [ 1.136593644574957, 7.666390173669025 ], [ 1.133093275574974, 7.670647095327478 ], [ 1.129169703601569, 7.674565574414243 ], [ 1.12658606100321, 7.677665346548345 ], [ 1.125591764409948, 7.679705128731575 ], [ 1.123791075230587, 7.684692780590011 ], [ 1.122269068243209, 7.688530830746944 ], [ 1.118780742962317, 7.694225556866294 ], [ 1.117908694225978, 7.696503471407175 ], [ 1.116094407114238, 7.70162212927471 ], [ 1.113216720045809, 7.707050147552843 ], [ 1.118887088405892, 7.708097024598486 ], [ 1.123281393269002, 7.70909444087106 ], [ 1.128075174209124, 7.709227429788203 ], [ 1.133201862737453, 7.709426901324922 ], [ 1.139885502433373, 7.709573955198169 ], [ 1.143480852639687, 7.709507461744661 ], [ 1.144546143429, 7.709906427601409 ], [ 1.145345097989054, 7.710438370596082 ], [ 1.146210649664078, 7.712499682419281 ], [ 1.147542248265571, 7.717021261338857 ], [ 1.148607511363529, 7.720678413943766 ], [ 1.14874559024205, 7.730353670774107 ], [ 1.149411403763884, 7.733212902520319 ], [ 1.151475387086883, 7.736604089745011 ], [ 1.153938847577635, 7.738465919800329 ], [ 1.157068122395324, 7.739662806168605 ], [ 1.162061642357295, 7.740128267895892 ], [ 1.169279361776115, 7.7401197528 ], [ 1.173540498029426, 7.739587799143484 ], [ 1.177868232462556, 7.737858959355579 ], [ 1.182406138336391, 7.73444378755811 ], [ 1.184603263469366, 7.731850533363361 ], [ 1.189667827580532, 7.722251998941375 ], [ 1.191398906109242, 7.716201063667493 ], [ 1.192131290900115, 7.711014553868384 ], [ 1.1926012868573, 7.705859874056483 ], [ 1.189291975446428, 7.689007606220215 ], [ 1.193287572823428, 7.679371167088052 ], [ 1.204569257373055, 7.67772592127313 ], [ 1.241670419361816, 7.682795453222124 ], [ 1.252051362616451, 7.682197337619976 ], [ 1.256190950287592, 7.682527427549783 ], [ 1.265924240791011, 7.680907324324506 ], [ 1.273099403271982, 7.677106311639049 ], [ 1.27897625219094, 7.673159369864306 ], [ 1.282657438977598, 7.668859867657515 ], [ 1.289276126875218, 7.662239121917636 ], [ 1.290121744117246, 7.658569574911692 ] ] ] ] } },
{ "type": "Feature", "properties": { "fid_12": 47.0, "region_id": "B", "region_nom": "Plateaux", "prefecture": "B11", "prefectu_1": "Ogou", "commune_id": "B11058", "commune_no": "Ogou 1", "Oldcanton_": "B11058169", "Oldcanton1": "Djama", "OldCantonP": 68961.904257999995, "OldLocalit": 39.0, "Shape_Leng": 80168.594059499999, "Shape_Le_1": 80168.594059499999, "NUMPOINTS": 89.0, "ecart_cant": 1, "ecart_veri": 1, "reclass_ec": "Bien équipé", "OBJECTID": 2, "Join_Count": 21081, "TARGET_FID": 1, "fid_1": 52, "full_id": "w1138040688", "osm_id": "1138040688", "osm_type": "way", "building": "yes", "access": "21081", "access_1": "31530", "prop_acces": 66.860133206499995, "nbre_build": 31530, "nbre_acesb": 21081, "Rclas_prop": "accès moyen", "Pop_Homme": 22867, "Pop_Femme": 23018, "Pop_Tot": 45885, "area_km": 212, "score_brut": 5, "Score_norm": 0.5, "score_pond": 0.075, "pop_pond": 0.075, "Part_ZH_AT": 26.5, "part_pond": 0.15, "pond_equip": 0.075 }, "geometry": { "type": "MultiPolygon", "coordinates": [ [ [ [ 1.290471226329367, 7.657053002440799 ], [ 1.292361843328033, 7.648848694135755 ], [ 1.292333224686072, 7.646992018283883 ], [ 1.293019830939345, 7.645306732072453 ], [ 1.29431158717848, 7.64392153248881 ], [ 1.29594224440269, 7.642607582748428 ], [ 1.29768724874183, 7.641093686795039 ], [ 1.29866004886019, 7.639694013051302 ], [ 1.298888875105572, 7.637679351604516 ], [ 1.298717159574224, 7.635508507889483 ], [ 1.297487045476638, 7.632823437548341 ], [ 1.296225334268878, 7.63077914958588 ], [ 1.294623301028331, 7.622095604594781 ], [ 1.292871563456917, 7.620127859086309 ], [ 1.288809168111928, 7.61744284420989 ], [ 1.285233173181134, 7.615300498404687 ], [ 1.283742765258311, 7.613883645042549 ], [ 1.283027541004211, 7.612141247268392 ], [ 1.283027541963631, 7.609570456368849 ], [ 1.28378472633155, 7.606359164364604 ], [ 1.284653279410582, 7.60404672554054 ], [ 1.286607425696594, 7.602529224666974 ], [ 1.290805148482065, 7.60130077292628 ], [ 1.295008570157518, 7.599071073640373 ], [ 1.297814174368591, 7.597851125931363 ], [ 1.299986267667116, 7.597580045767876 ], [ 1.301524849607834, 7.598348175205617 ], [ 1.302701480505376, 7.599748807130656 ], [ 1.303832786192693, 7.601736828359556 ], [ 1.306140594332341, 7.603318199900401 ], [ 1.309398669532765, 7.603092290895114 ], [ 1.31245407872262, 7.601341389584374 ], [ 1.315980866337186, 7.598610531117065 ], [ 1.317132504762674, 7.596095274436208 ], [ 1.317132506455224, 7.593580017571621 ], [ 1.315333112617367, 7.591711569533778 ], [ 1.312025828785682, 7.589588034903229 ], [ 1.308858922496198, 7.58664162719203 ], [ 1.307203533271759, 7.583623295864984 ], [ 1.306267771808309, 7.580676887998753 ], [ 1.305902714386146, 7.576119033440767 ], [ 1.306046719032701, 7.572453950296029 ], [ 1.306694476104358, 7.570944840748712 ], [ 1.307989987692365, 7.570226164464233 ], [ 1.312524409341697, 7.568429586386276 ], [ 1.316302166650161, 7.567244559345802 ], [ 1.318101561138032, 7.566022864988612 ], [ 1.32213210101865, 7.563795080476035 ], [ 1.325083134727247, 7.560704883189327 ], [ 1.327242408371889, 7.558908304353128 ], [ 1.330409315820162, 7.557471007905434 ], [ 1.333720227406633, 7.556967934778538 ], [ 1.336455254096343, 7.55747101025001 ], [ 1.341493556974714, 7.558908310087006 ], [ 1.346315855362494, 7.559555065342977 ], [ 1.348259252906374, 7.559411330518827 ], [ 1.349051012724902, 7.558189636184516 ], [ 1.349698769988914, 7.555530699919975 ], [ 1.350562401402924, 7.554165271048647 ], [ 1.350419177166024, 7.550892417240089 ], [ 1.34933954220308, 7.547083653932508 ], [ 1.348331778843328, 7.544927678904554 ], [ 1.346892264213027, 7.543346700833455 ], [ 1.344804992958854, 7.542125005556055 ], [ 1.342717721528019, 7.542484287100209 ], [ 1.341422209792256, 7.543634112963466 ], [ 1.340414574413545, 7.543849715790016 ], [ 1.337967425267689, 7.543059226725656 ], [ 1.336239903807654, 7.541190721499256 ], [ 1.336096031343143, 7.538569352785731 ], [ 1.336887792708813, 7.533107689108684 ], [ 1.31894445935896, 7.529189366388827 ], [ 1.31413619877455, 7.525775868337776 ], [ 1.308373626047247, 7.52416087946025 ], [ 1.302280714919775, 7.524050766487707 ], [ 1.29449940780248, 7.526436545065897 ], [ 1.288663426480621, 7.528859027876226 ], [ 1.280184736826693, 7.524307696864081 ], [ 1.271045370387118, 7.523830540799947 ], [ 1.258712731454491, 7.526803587687288 ], [ 1.251298466874055, 7.53069424152863 ], [ 1.241938874485776, 7.529299478848826 ], [ 1.234485611239201, 7.534832650040904 ], [ 1.230521548322708, 7.534685832269931 ], [ 1.225126019024762, 7.533162604624158 ], [ 1.221015139564473, 7.531841250722774 ], [ 1.214775411177744, 7.529638993372185 ], [ 1.187650946453012, 7.515654662165405 ], [ 1.18111758468011, 7.511396965632575 ], [ 1.177410451985829, 7.509635159982687 ], [ 1.170363229644891, 7.508864370136345 ], [ 1.155057543370128, 7.506313422018046 ], [ 1.150799847099992, 7.506863986187174 ], [ 1.14764327892578, 7.508846017356047 ], [ 1.144046259207645, 7.510901457248068 ], [ 1.14463352778916, 7.517875271024789 ], [ 1.144817049169299, 7.522279785120725 ], [ 1.143348877396193, 7.528666330221566 ], [ 1.141550367226944, 7.530831883292472 ], [ 1.137035740713555, 7.531419151850266 ], [ 1.131860437397708, 7.531749490028576 ], [ 1.126685132926926, 7.532006420391038 ], [ 1.122867887722841, 7.53266709702458 ], [ 1.119894841315744, 7.532153236900315 ], [ 1.118610190783258, 7.532336758094592 ], [ 1.116297820821049, 7.533034140014658 ], [ 1.11519669246559, 7.533988451362661 ], [ 1.114279085414861, 7.534061859491913 ], [ 1.113545000103835, 7.534025155319836 ], [ 1.112475696660205, 7.533967234689532 ], [ 1.111717607650782, 7.53787793208771 ], [ 1.114817433222899, 7.549546747410588 ], [ 1.119268455800487, 7.55700842870317 ], [ 1.124991293282069, 7.558913542794425 ], [ 1.132860064198814, 7.561056789963148 ], [ 1.141732991756906, 7.562727404772911 ], [ 1.144727582171816, 7.556891923798281 ], [ 1.150224048190221, 7.554240039397281 ], [ 1.161969418866394, 7.555267758979694 ], [ 1.169970952176202, 7.560626584588434 ], [ 1.170337995419803, 7.564297012496103 ], [ 1.171182194146491, 7.567802271514473 ], [ 1.173531267513275, 7.57306933638175 ], [ 1.181954900717568, 7.579474233510703 ], [ 1.193314876703739, 7.591118667423328 ], [ 1.194562821536713, 7.599413834664901 ], [ 1.205060246306831, 7.617545750346903 ], [ 1.209978620291806, 7.627749541212675 ], [ 1.224752094036897, 7.638834234646853 ], [ 1.233083966851563, 7.645587822338139 ], [ 1.26578748234862, 7.655699852303414 ], [ 1.269017459254331, 7.655883374007454 ], [ 1.272357548754122, 7.656378881758386 ], [ 1.275569173427328, 7.657094614791726 ], [ 1.27997368715982, 7.65724143212425 ], [ 1.283570707656245, 7.657498361869819 ], [ 1.286286823959009, 7.656764276912501 ], [ 1.28811787094513, 7.657725122938583 ], [ 1.288140390097608, 7.657736940504877 ], [ 1.290121744117246, 7.658569574911692 ], [ 1.290471226329367, 7.657053002440799 ] ] ] ] } },
{ "type": "Feature", "properties": { "fid_12": 48.0, "region_id": "B", "region_nom": "Plateaux", "prefecture": "B11", "prefectu_1": "Ogou", "commune_id": "B11058", "commune_no": "Ogou 1", "Oldcanton_": "B11058170", "Oldcanton1": "Gnagna", "OldCantonP": 41183.744537, "OldLocalit": 19.0, "Shape_Leng": 40289.100853900003, "Shape_Le_1": 40289.100853900003, "NUMPOINTS": 77.0, "ecart_cant": 0, "ecart_veri": 0, "reclass_ec": "Moyennement équipé", "OBJECTID": 3, "Join_Count": 15700, "TARGET_FID": 2, "fid_1": 281, "full_id": "w1138405241", "osm_id": "1138405241", "osm_type": "way", "building": "yes", "access": "15700", "access_1": "22002", "prop_acces": 71.357149350100002, "nbre_build": 22002, "nbre_acesb": 15700, "Rclas_prop": "bon accès", "Pop_Homme": 29195, "Pop_Femme": 31027, "Pop_Tot": 60222, "area_km": 54, "score_brut": 2, "Score_norm": 0.2, "score_pond": 0.03, "pop_pond": 0.03, "Part_ZH_AT": 37.1, "part_pond": 0.06, "pond_equip": 0.03 }, "geometry": { "type": "MultiPolygon", "coordinates": [ [ [ [ 1.112475696660205, 7.533967234689532 ], [ 1.113545000103835, 7.534025155319836 ], [ 1.114279085414861, 7.534061859491913 ], [ 1.11519669246559, 7.533988451362661 ], [ 1.116297820821049, 7.533034140014658 ], [ 1.118610190783258, 7.532336758094592 ], [ 1.119894841315744, 7.532153236900315 ], [ 1.122867887722841, 7.53266709702458 ], [ 1.126685132926926, 7.532006420391038 ], [ 1.131860437397708, 7.531749490028576 ], [ 1.137035740713555, 7.531419151850266 ], [ 1.141550367226944, 7.530831883292472 ], [ 1.143348877396193, 7.528666330221566 ], [ 1.144817049169299, 7.522279785120725 ], [ 1.14463352778916, 7.517875271024789 ], [ 1.144046259207645, 7.510901457248068 ], [ 1.14764327892578, 7.508846017356047 ], [ 1.150799847099992, 7.506863986187174 ], [ 1.155057543370128, 7.506313422018046 ], [ 1.170363229644891, 7.508864370136345 ], [ 1.177410451985829, 7.509635159982687 ], [ 1.18111758468011, 7.511396965632575 ], [ 1.187650946453012, 7.515654662165405 ], [ 1.214775411177744, 7.529638993372185 ], [ 1.221015139564473, 7.531841250722774 ], [ 1.225126019024762, 7.533162604624158 ], [ 1.230521548322708, 7.534685832269931 ], [ 1.234485611239201, 7.534832650040904 ], [ 1.241938874485776, 7.529299478848826 ], [ 1.235809259169887, 7.523793836813168 ], [ 1.230817477024508, 7.51336982015021 ], [ 1.229734700817185, 7.492136393077047 ], [ 1.227697612830484, 7.487823639611255 ], [ 1.224174002063024, 7.483474182661274 ], [ 1.220907320553086, 7.478372287057427 ], [ 1.216661831542935, 7.474048995329197 ], [ 1.215759545184645, 7.474330228010578 ], [ 1.207023926262381, 7.475394651687738 ], [ 1.20067408522023, 7.475541469629432 ], [ 1.195535485609023, 7.474513749251241 ], [ 1.191975169588042, 7.474495397122876 ], [ 1.178229416149472, 7.47229314061501 ], [ 1.163547703406516, 7.474752326786017 ], [ 1.153362265029954, 7.480239617101463 ], [ 1.144328284774693, 7.479976502441495 ], [ 1.143280762749695, 7.488666750031864 ], [ 1.142450670383667, 7.497180989596383 ], [ 1.141461029580079, 7.501543708856923 ], [ 1.139872466251075, 7.501340304422839 ], [ 1.132541116262436, 7.503509119121234 ], [ 1.125864514744751, 7.506049269580375 ], [ 1.120539239186829, 7.513828441876577 ], [ 1.117198153842163, 7.52013134140519 ], [ 1.113859788306514, 7.528307417431996 ], [ 1.113065049984756, 7.530926984440269 ], [ 1.112475696660205, 7.533967234689532 ] ] ] ] } }
]
}
