{
"type": "FeatureCollection",
"name": "Infrasructure_eau_potable",
"crs": { "type": "name", "properties": { "name": "urn:ogc:def:crs:OGC:1.3:CRS84" } },
"features": [
{ "type": "Feature", "properties": { "region_nom": "Plateaux", "prefecture": "Ogou", "commune_no": "Ogou 1", "canton_nom": "Djama", "nom_locali": "Abotesse", "organisme": "Hydraulique villageoise", "borne_font": null }, "geometry": { "type": "Point", "coordinates": [ 1.192588111084733, 7.529745133253332 ] } },
{ "type": "Feature", "properties": { "region_nom": "Plateaux", "prefecture": "Ogou", "commune_no": "Ogou 1", "canton_nom": "Djama", "nom_locali": "Itchinri", "organisme": "Hydraulique villageoise", "borne_font": null }, "geometry": { "type": "Point", "coordinates": [ 1.219225, 7.560615 ] } },
{ "type": "Feature", "properties": { "region_nom": "Plateaux", "prefecture": "Ogou", "commune_no": "Ogou 1", "canton_nom": "Djama", "nom_locali": null, "organisme": null, "borne_font": "TDE" }, "geometry": { "type": "Point", "coordinates": [ 1.123173344652423, 7.532705002956055 ] } },
{ "type": "Feature", "properties": { "region_nom": "Plateaux", "prefecture": "Ogou", "commune_no": "Ogou 1", "canton_nom": "Djama", "nom_locali": null, "organisme": null, "borne_font": "TDE" }, "geometry": { "type": "Point", "coordinates": [ 1.146615, 7.51735 ] } },
{ "type": "Feature", "properties": { "region_nom": "Plateaux", "prefecture": "Ogou", "commune_no": "Ogou 1", "canton_nom": "Djama", "nom_locali": "Awoyo", "organisme": "Hydraulique villageoise", "borne_font": null }, "geometry": { "type": "Point", "coordinates": [ 1.171643333333332, 7.515466666666665 ] } },
{ "type": "Feature", "properties": { "region_nom": "Plateaux", "prefecture": "Ogou", "commune_no": "Ogou 1", "canton_nom": "Djama", "nom_locali": null, "organisme": null, "borne_font": "TDE" }, "geometry": { "type": "Point", "coordinates": [ 1.123751666666668, 7.536385 ] } },
{ "type": "Feature", "properties": { "region_nom": "Plateaux", "prefecture": "Ogou", "commune_no": "Ogou 1", "canton_nom": "Djama", "nom_locali": "Matekpo Koffi", "organisme": "Hydraulique villageoise", "borne_font": null }, "geometry": { "type": "Point", "coordinates": [ 1.228333333, 7.572777778 ] } },
{ "type": "Feature", "properties": { "region_nom": "Plateaux", "prefecture": "Ogou", "commune_no": "Ogou 1", "canton_nom": "Gnagna", "nom_locali": null, "organisme": null, "borne_font": "TDE" }, "geometry": { "type": "Point", "coordinates": [ 1.123138333333334, 7.531088333333332 ] } },
{ "type": "Feature", "properties": { "region_nom": "Plateaux", "prefecture": "Ogou", "commune_no": "Ogou 1", "canton_nom": "Djama", "nom_locali": null, "organisme": null, "borne_font": "TDE" }, "geometry": { "type": "Point", "coordinates": [ 1.12649694032473, 7.540744016319412 ] } },
{ "type": "Feature", "properties": { "region_nom": "Plateaux", "prefecture": "Ogou", "commune_no": "Ogou 1", "canton_nom": "Gnagna", "nom_locali": "Akpaka", "organisme": "Hydraulique villageoise", "borne_font": null }, "geometry": { "type": "Point", "coordinates": [ 1.207618333333334, 7.515718333333333 ] } },
{ "type": "Feature", "properties": { "region_nom": "Plateaux", "prefecture": "Ogou", "commune_no": "Ogou 1", "canton_nom": "Djama", "nom_locali": "Gboble", "organisme": "Nsp", "borne_font": null }, "geometry": { "type": "Point", "coordinates": [ 1.261622824231899, 7.572911117641499 ] } },
{ "type": "Feature", "properties": { "region_nom": "Plateaux", "prefecture": "Ogou", "commune_no": "Ogou 1", "canton_nom": "Djama", "nom_locali": null, "organisme": null, "borne_font": "TDE" }, "geometry": { "type": "Point", "coordinates": [ 1.124551666666667, 7.537383333333333 ] } },
{ "type": "Feature", "properties": { "region_nom": "Plateaux", "prefecture": "Ogou", "commune_no": "Ogou 1", "canton_nom": "Djama", "nom_locali": null, "organisme": null, "borne_font": "TDE" }, "geometry": { "type": "Point", "coordinates": [ 1.124578333333333, 7.545701666666668 ] } },
{ "type": "Feature", "properties": { "region_nom": "Plateaux", "prefecture": "Ogou", "commune_no": "Ogou 1", "canton_nom": "Djama", "nom_locali": "Olesse", "organisme": "Hydraulique villageoise", "borne_font": null }, "geometry": { "type": "Point", "coordinates": [ 1.25613, 7.589148333333334 ] } },
{ "type": "Feature", "properties": { "region_nom": "Plateaux", "prefecture": "Ogou", "commune_no": "Ogou 1", "canton_nom": "Gnagna", "nom_locali": null, "organisme": null, "borne_font": "TDE" }, "geometry": { "type": "Point", "coordinates": [ 1.121978333333332, 7.530353333333334 ] } },
{ "type": "Feature", "properties": { "region_nom": "Plateaux", "prefecture": "Ogou", "commune_no": "Ogou 1", "canton_nom": "Djama", "nom_locali": null, "organisme": null, "borne_font": "TDE" }, "geometry": { "type": "Point", "coordinates": [ 1.12354, 7.534836666666675 ] } },
{ "type": "Feature", "properties": { "region_nom": "Plateaux", "prefecture": "Ogou", "commune_no": "Ogou 1", "canton_nom": "Djama", "nom_locali": null, "organisme": null, "borne_font": "TDE" }, "geometry": { "type": "Point", "coordinates": [ 1.120701666666666, 7.543838333333333 ] } },
{ "type": "Feature", "properties": { "region_nom": "Plateaux", "prefecture": "Ogou", "commune_no": "Ogou 1", "canton_nom": "Djama", "nom_locali": "Yoro Koto", "organisme": "Hydraulique villageoise", "borne_font": null }, "geometry": { "type": "Point", "coordinates": [ 1.260826666666668, 7.571638333333337 ] } },
{ "type": "Feature", "properties": { "region_nom": "Plateaux", "prefecture": "Ogou", "commune_no": "Ogou 1", "canton_nom": "Gnagna", "nom_locali": null, "organisme": null, "borne_font": "TDE" }, "geometry": { "type": "Point", "coordinates": [ 1.121528333333334, 7.530561666666667 ] } },
{ "type": "Feature", "properties": { "region_nom": "Plateaux", "prefecture": "Ogou", "commune_no": "Ogou 1", "canton_nom": "Djama", "nom_locali": null, "organisme": null, "borne_font": "TDE" }, "geometry": { "type": "Point", "coordinates": [ 1.124446666666667, 7.535373333333333 ] } },
{ "type": "Feature", "properties": { "region_nom": "Plateaux", "prefecture": "Ogou", "commune_no": "Ogou 1", "canton_nom": "Djama", "nom_locali": "Kotadjou", "organisme": "Hydraulique villageoise", "borne_font": null }, "geometry": { "type": "Point", "coordinates": [ 1.252678333333334, 7.584685 ] } },
{ "type": "Feature", "properties": { "region_nom": "Plateaux", "prefecture": "Ogou", "commune_no": "Ogou 1", "canton_nom": "Djama", "nom_locali": null, "organisme": null, "borne_font": "TDE" }, "geometry": { "type": "Point", "coordinates": [ 1.121928333333332, 7.533963333333334 ] } },
{ "type": "Feature", "properties": { "region_nom": "Plateaux", "prefecture": "Ogou", "commune_no": "Ogou 1", "canton_nom": "Djama", "nom_locali": null, "organisme": null, "borne_font": "TDE" }, "geometry": { "type": "Point", "coordinates": [ 1.124549430979626, 7.534042720483516 ] } },
{ "type": "Feature", "properties": { "region_nom": "Plateaux", "prefecture": "Ogou", "commune_no": "Ogou 1", "canton_nom": "Djama", "nom_locali": "Maroumi Ibah", "organisme": "Hydraulique villageoise", "borne_font": null }, "geometry": { "type": "Point", "coordinates": [ 1.235066666666667, 7.609855 ] } },
{ "type": "Feature", "properties": { "region_nom": "Plateaux", "prefecture": "Ogou", "commune_no": "Ogou 1", "canton_nom": "Gnagna", "nom_locali": null, "organisme": null, "borne_font": "TDE" }, "geometry": { "type": "Point", "coordinates": [ 1.121011666666666, 7.531621666666668 ] } },
{ "type": "Feature", "properties": { "region_nom": "Plateaux", "prefecture": "Ogou", "commune_no": "Ogou 1", "canton_nom": "Djama", "nom_locali": "Tikpe Kope", "organisme": "Hydraulique villageoise", "borne_font": null }, "geometry": { "type": "Point", "coordinates": [ 1.241981666666667, 7.589195 ] } },
{ "type": "Feature", "properties": { "region_nom": "Plateaux", "prefecture": "Ogou", "commune_no": "Ogou 1", "canton_nom": "Gnagna", "nom_locali": null, "organisme": null, "borne_font": "TDE" }, "geometry": { "type": "Point", "coordinates": [ 1.116716666666666, 7.530591666666666 ] } },
{ "type": "Feature", "properties": { "region_nom": "Plateaux", "prefecture": "Ogou", "commune_no": "Ogou 1", "canton_nom": "Djama", "nom_locali": "Bocco", "organisme": "Hydraulique villageoise", "borne_font": null }, "geometry": { "type": "Point", "coordinates": [ 1.212041666666667, 7.585523333333332 ] } },
{ "type": "Feature", "properties": { "region_nom": "Plateaux", "prefecture": "Ogou", "commune_no": "Ogou 1", "canton_nom": "Djama", "nom_locali": null, "organisme": null, "borne_font": "TDE" }, "geometry": { "type": "Point", "coordinates": [ 1.121628333333335, 7.53278 ] } },
{ "type": "Feature", "properties": { "region_nom": "Plateaux", "prefecture": "Ogou", "commune_no": "Ogou 1", "canton_nom": "Djama", "nom_locali": "Sada", "organisme": "Hydraulique villageoise", "borne_font": null }, "geometry": { "type": "Point", "coordinates": [ 1.15027, 7.529425 ] } },
{ "type": "Feature", "properties": { "region_nom": "Plateaux", "prefecture": "Ogou", "commune_no": "Ogou 1", "canton_nom": "Djama", "nom_locali": "Akpaka I", "organisme": "Hydraulique villageoise", "borne_font": null }, "geometry": { "type": "Point", "coordinates": [ 1.205098333333333, 7.571013333333333 ] } },
{ "type": "Feature", "properties": { "region_nom": "Plateaux", "prefecture": "Ogou", "commune_no": "Ogou 1", "canton_nom": "Djama", "nom_locali": "Iko Akpa", "organisme": "Hydraulique villageoise", "borne_font": null }, "geometry": { "type": "Point", "coordinates": [ 1.222125, 7.61467 ] } },
{ "type": "Feature", "properties": { "region_nom": "Plateaux", "prefecture": "Ogou", "commune_no": "Ogou 1", "canton_nom": "Djama", "nom_locali": "Mawuli Kope", "organisme": "Hydraulique villageoise", "borne_font": null }, "geometry": { "type": "Point", "coordinates": [ 1.252253333333334, 7.63212 ] } },
{ "type": "Feature", "properties": { "region_nom": "Plateaux", "prefecture": "Ogou", "commune_no": "Ogou 1", "canton_nom": "Djama", "nom_locali": "Atakpame", "organisme": "Hydraulique villageoise", "borne_font": null }, "geometry": { "type": "Point", "coordinates": [ 1.159713333333334, 7.531365 ] } },
{ "type": "Feature", "properties": { "region_nom": "Plateaux", "prefecture": "Ogou", "commune_no": "Ogou 1", "canton_nom": "Djama", "nom_locali": "Iko Akpa", "organisme": "Hydraulique villageoise", "borne_font": null }, "geometry": { "type": "Point", "coordinates": [ 1.219818333333334, 7.61289 ] } },
{ "type": "Feature", "properties": { "region_nom": "Plateaux", "prefecture": "Ogou", "commune_no": "Ogou 1", "canton_nom": "Djama", "nom_locali": "Iko Akpa", "organisme": "Hydraulique villageoise", "borne_font": null }, "geometry": { "type": "Point", "coordinates": [ 1.219708333333333, 7.613516666666666 ] } },
{ "type": "Feature", "properties": { "region_nom": "Plateaux", "prefecture": "Ogou", "commune_no": "Ogou 1", "canton_nom": "Gnagna", "nom_locali": "Edigbale", "organisme": "Hydraulique villageoise", "borne_font": null }, "geometry": { "type": "Point", "coordinates": [ 1.204096666666667, 7.501318333333336 ] } },
{ "type": "Feature", "properties": { "region_nom": "Plateaux", "prefecture": "Ogou", "commune_no": "Ogou 1", "canton_nom": "Gnagna", "nom_locali": "Iko Tadi", "organisme": "Hydraulique villageoise", "borne_font": null }, "geometry": { "type": "Point", "coordinates": [ 1.19825, 7.492816666666666 ] } },
{ "type": "Feature", "properties": { "region_nom": "Plateaux", "prefecture": "Ogou", "commune_no": "Ogou 1", "canton_nom": "Djama", "nom_locali": "Awoyo", "organisme": "Hydraulique villageoise", "borne_font": null }, "geometry": { "type": "Point", "coordinates": [ 1.178185, 7.512095 ] } },
{ "type": "Feature", "properties": { "region_nom": "Plateaux", "prefecture": "Ogou", "commune_no": "Ogou 1", "canton_nom": "Djama", "nom_locali": "Awoyo", "organisme": "Hydraulique villageoise", "borne_font": null }, "geometry": { "type": "Point", "coordinates": [ 1.168611111, 7.51 ] } },
{ "type": "Feature", "properties": { "region_nom": "Plateaux", "prefecture": "Ogou", "commune_no": "Ogou 1", "canton_nom": "Djama", "nom_locali": "Katefa Awoyo", "organisme": "Hydraulique villageoise", "borne_font": null }, "geometry": { "type": "Point", "coordinates": [ 1.170563333333334, 7.514673333333337 ] } },
{ "type": "Feature", "properties": { "region_nom": "Plateaux", "prefecture": "Ogou", "commune_no": "Ogou 1", "canton_nom": "Djama", "nom_locali": "Demadeli", "organisme": "Hydraulique villageoise", "borne_font": null }, "geometry": { "type": "Point", "coordinates": [ 1.13819, 7.557718333333333 ] } },
{ "type": "Feature", "properties": { "region_nom": "Plateaux", "prefecture": "Ogou", "commune_no": "Ogou 1", "canton_nom": "Houdou", "nom_locali": "Gbekon", "organisme": "Hydraulique villageoise", "borne_font": null }, "geometry": { "type": "Point", "coordinates": [ 1.148888889, 7.558611111 ] } },
{ "type": "Feature", "properties": { "region_nom": "Plateaux", "prefecture": "Ogou", "commune_no": "Ogou 1", "canton_nom": "Houdou", "nom_locali": "Gbecon", "organisme": "Hydraulique villageoise", "borne_font": null }, "geometry": { "type": "Point", "coordinates": [ 1.147446666666667, 7.557758333333332 ] } },
{ "type": "Feature", "properties": { "region_nom": "Plateaux", "prefecture": "Ogou", "commune_no": "Ogou 1", "canton_nom": "Djama", "nom_locali": null, "organisme": null, "borne_font": "TDE" }, "geometry": { "type": "Point", "coordinates": [ 1.146691666666669, 7.537121666666663 ] } },
{ "type": "Feature", "properties": { "region_nom": "Plateaux", "prefecture": "Ogou", "commune_no": "Ogou 1", "canton_nom": "Gnagna", "nom_locali": "Iko Arouka", "organisme": "Hydraulique villageoise", "borne_font": null }, "geometry": { "type": "Point", "coordinates": [ 1.186673333333334, 7.48236333333333 ] } },
{ "type": "Feature", "properties": { "region_nom": "Plateaux", "prefecture": "Ogou", "commune_no": "Ogou 1", "canton_nom": "Gnagna", "nom_locali": null, "organisme": null, "borne_font": "TDE" }, "geometry": { "type": "Point", "coordinates": [ 1.129241666666666, 7.523811666666669 ] } },
{ "type": "Feature", "properties": { "region_nom": "Plateaux", "prefecture": "Ogou", "commune_no": "Ogou 1", "canton_nom": "Gnagna", "nom_locali": "Tchakpali", "organisme": "Hydraulique villageoise", "borne_font": null }, "geometry": { "type": "Point", "coordinates": [ 1.116341666666667, 7.532148333333335 ] } },
{ "type": "Feature", "properties": { "region_nom": "Plateaux", "prefecture": "Ogou", "commune_no": "Ogou 1", "canton_nom": "Gnagna", "nom_locali": "Iko Arouka", "organisme": "Nsp", "borne_font": null }, "geometry": { "type": "Point", "coordinates": [ 1.186673333333334, 7.48236333333333 ] } },
{ "type": "Feature", "properties": { "region_nom": "Plateaux", "prefecture": "Ogou", "commune_no": "Ogou 1", "canton_nom": "Gnagna", "nom_locali": "Alakoyo", "organisme": "Hydraulique villageoise", "borne_font": null }, "geometry": { "type": "Point", "coordinates": [ 1.196633333333333, 7.485776666666665 ] } },
{ "type": "Feature", "properties": { "region_nom": "Plateaux", "prefecture": "Ogou", "commune_no": "Ogou 1", "canton_nom": "Gnagna", "nom_locali": "Ikoe Afi", "organisme": "Hydraulique villageoise", "borne_font": null }, "geometry": { "type": "Point", "coordinates": [ 1.164738333333335, 7.498511666666667 ] } },
{ "type": "Feature", "properties": { "region_nom": "Plateaux", "prefecture": "Ogou", "commune_no": "Ogou 1", "canton_nom": "Djama", "nom_locali": null, "organisme": null, "borne_font": "TDE" }, "geometry": { "type": "Point", "coordinates": [ 1.12194, 7.541748333333332 ] } },
{ "type": "Feature", "properties": { "region_nom": "Plateaux", "prefecture": "Ogou", "commune_no": "Ogou 1", "canton_nom": "Gnagna", "nom_locali": "Itendje", "organisme": "Hydraulique villageoise", "borne_font": null }, "geometry": { "type": "Point", "coordinates": [ 1.165386666666667, 7.479723333333332 ] } },
{ "type": "Feature", "properties": { "region_nom": "Plateaux", "prefecture": "Ogou", "commune_no": "Ogou 1", "canton_nom": "Gnagna", "nom_locali": "Talo Gbomaho", "organisme": "Hydraulique villageoise", "borne_font": null }, "geometry": { "type": "Point", "coordinates": [ 1.151807684771601, 7.483693618075454 ] } },
{ "type": "Feature", "properties": { "region_nom": "Plateaux", "prefecture": "Ogou", "commune_no": "Ogou 1", "canton_nom": "Gnagna", "nom_locali": "Talo Sane Alafia", "organisme": "Hydraulique villageoise", "borne_font": null }, "geometry": { "type": "Point", "coordinates": [ 1.157743333333334, 7.491596666666667 ] } },
{ "type": "Feature", "properties": { "region_nom": "Plateaux", "prefecture": "Ogou", "commune_no": "Ogou 1", "canton_nom": "Gnagna", "nom_locali": "Talo Gbomaho", "organisme": "Hydraulique villageoise", "borne_font": null }, "geometry": { "type": "Point", "coordinates": [ 1.16194, 7.486011666666668 ] } },
{ "type": "Feature", "properties": { "region_nom": "Plateaux", "prefecture": "Ogou", "commune_no": "Ogou 1", "canton_nom": "Djama", "nom_locali": null, "organisme": null, "borne_font": "TDE" }, "geometry": { "type": "Point", "coordinates": [ 1.15374, 7.50693 ] } },
{ "type": "Feature", "properties": { "region_nom": "Plateaux", "prefecture": "Ogou", "commune_no": "Ogou 1", "canton_nom": "Houdou", "nom_locali": "Klala", "organisme": "Hydraulique villageoise", "borne_font": null }, "geometry": { "type": "Point", "coordinates": [ 1.174353333333333, 7.583586666666666 ] } },
{ "type": "Feature", "properties": { "region_nom": "Plateaux", "prefecture": "Ogou", "commune_no": "Ogou 1", "canton_nom": "Djama", "nom_locali": null, "organisme": null, "borne_font": "TDE" }, "geometry": { "type": "Point", "coordinates": [ 1.155706666666668, 7.513958333333333 ] } },
{ "type": "Feature", "properties": { "region_nom": "Plateaux", "prefecture": "Ogou", "commune_no": "Ogou 1", "canton_nom": "Houdou", "nom_locali": "Blakpa", "organisme": "Hydraulique villageoise", "borne_font": null }, "geometry": { "type": "Point", "coordinates": [ 1.175826666666666, 7.604513333333331 ] } },
{ "type": "Feature", "properties": { "region_nom": "Plateaux", "prefecture": "Ogou", "commune_no": "Ogou 1", "canton_nom": "Gnagna", "nom_locali": null, "organisme": null, "borne_font": "TDE" }, "geometry": { "type": "Point", "coordinates": [ 1.11892, 7.528521666666675 ] } },
{ "type": "Feature", "properties": { "region_nom": "Plateaux", "prefecture": "Ogou", "commune_no": "Ogou 1", "canton_nom": "Djama", "nom_locali": "Doufio", "organisme": "Hydraulique villageoise", "borne_font": null }, "geometry": { "type": "Point", "coordinates": [ 1.1287, 7.551596666666669 ] } },
{ "type": "Feature", "properties": { "region_nom": "Plateaux", "prefecture": "Ogou", "commune_no": "Ogou 1", "canton_nom": "Gnagna", "nom_locali": null, "organisme": null, "borne_font": "TDE" }, "geometry": { "type": "Point", "coordinates": [ 1.12212, 7.529 ] } },
{ "type": "Feature", "properties": { "region_nom": "Plateaux", "prefecture": "Ogou", "commune_no": "Ogou 1", "canton_nom": "Gnagna", "nom_locali": null, "organisme": null, "borne_font": "TDE" }, "geometry": { "type": "Point", "coordinates": [ 1.119978333333334, 7.52810666666667 ] } },
{ "type": "Feature", "properties": { "region_nom": "Plateaux", "prefecture": "Ogou", "commune_no": "Ogou 1", "canton_nom": "Gnagna", "nom_locali": null, "organisme": null, "borne_font": "TDE" }, "geometry": { "type": "Point", "coordinates": [ 1.121681666666667, 7.52774 ] } },
{ "type": "Feature", "properties": { "region_nom": "Plateaux", "prefecture": "Ogou", "commune_no": "Ogou 1", "canton_nom": "Houdou", "nom_locali": "Agoune", "organisme": "Hydraulique villageoise", "borne_font": null }, "geometry": { "type": "Point", "coordinates": [ 1.17721, 7.649986666666668 ] } },
{ "type": "Feature", "properties": { "region_nom": "Plateaux", "prefecture": "Ogou", "commune_no": "Ogou 1", "canton_nom": "Houdou", "nom_locali": "Miniki", "organisme": "Hydraulique villageoise", "borne_font": null }, "geometry": { "type": "Point", "coordinates": [ 1.148085, 7.679543333333329 ] } },
{ "type": "Feature", "properties": { "region_nom": "Plateaux", "prefecture": "Ogou", "commune_no": "Ogou 1", "canton_nom": "Houdou", "nom_locali": "Foukote", "organisme": "Hydraulique villageoise", "borne_font": null }, "geometry": { "type": "Point", "coordinates": [ 1.154686666666667, 7.614343333333333 ] } },
{ "type": "Feature", "properties": { "region_nom": "Plateaux", "prefecture": "Ogou", "commune_no": "Ogou 1", "canton_nom": "Houdou", "nom_locali": "Blakpa", "organisme": "Hydraulique villageoise", "borne_font": null }, "geometry": { "type": "Point", "coordinates": [ 1.17245, 7.608206666666668 ] } },
{ "type": "Feature", "properties": { "region_nom": "Plateaux", "prefecture": "Ogou", "commune_no": "Ogou 1", "canton_nom": "Houdou", "nom_locali": "Foukote", "organisme": "Hydraulique villageoise", "borne_font": null }, "geometry": { "type": "Point", "coordinates": [ 1.15562, 7.616943333333334 ] } },
{ "type": "Feature", "properties": { "region_nom": "Plateaux", "prefecture": "Ogou", "commune_no": "Ogou 1", "canton_nom": "Houdou", "nom_locali": "Yoro Kpodji", "organisme": "Hydraulique villageoise", "borne_font": null }, "geometry": { "type": "Point", "coordinates": [ 1.158371666666667, 7.601381666666668 ] } },
{ "type": "Feature", "properties": { "region_nom": "Plateaux", "prefecture": "Ogou", "commune_no": "Ogou 1", "canton_nom": "Gnagna", "nom_locali": null, "organisme": null, "borne_font": "Hydraulique villageoise" }, "geometry": { "type": "Point", "coordinates": [ 1.151735, 7.483678333333333 ] } },
{ "type": "Feature", "properties": { "region_nom": "Plateaux", "prefecture": "Ogou", "commune_no": "Ogou 1", "canton_nom": "Gnagna", "nom_locali": null, "organisme": null, "borne_font": "Hydraulique villageoise" }, "geometry": { "type": "Point", "coordinates": [ 1.162643333333333, 7.485333333333334 ] } },
{ "type": "Feature", "properties": { "region_nom": "Plateaux", "prefecture": "Ogou", "commune_no": "Ogou 1", "canton_nom": "Gnagna", "nom_locali": null, "organisme": null, "borne_font": "autre" }, "geometry": { "type": "Point", "coordinates": [ 1.153278333333335, 7.493625 ] } },
{ "type": "Feature", "properties": { "region_nom": "Plateaux", "prefecture": "Ogou", "commune_no": "Ogou 1", "canton_nom": "Djama", "nom_locali": null, "organisme": null, "borne_font": "TDE" }, "geometry": { "type": "Point", "coordinates": [ 1.152315, 7.51105 ] } },
{ "type": "Feature", "properties": { "region_nom": "Plateaux", "prefecture": "Ogou", "commune_no": "Ogou 1", "canton_nom": "Djama", "nom_locali": null, "organisme": null, "borne_font": "TDE" }, "geometry": { "type": "Point", "coordinates": [ 1.151335, 7.515818333333332 ] } },
{ "type": "Feature", "properties": { "region_nom": "Plateaux", "prefecture": "Ogou", "commune_no": "Ogou 1", "canton_nom": "Djama", "nom_locali": null, "organisme": null, "borne_font": "TDE" }, "geometry": { "type": "Point", "coordinates": [ 1.149803333333334, 7.516553333333334 ] } },
{ "type": "Feature", "properties": { "region_nom": "Plateaux", "prefecture": "Ogou", "commune_no": "Ogou 1", "canton_nom": "Djama", "nom_locali": null, "organisme": null, "borne_font": "TDE" }, "geometry": { "type": "Point", "coordinates": [ 1.157293333333333, 7.50896 ] } },
{ "type": "Feature", "properties": { "region_nom": "Plateaux", "prefecture": "Ogou", "commune_no": "Ogou 1", "canton_nom": "Djama", "nom_locali": null, "organisme": null, "borne_font": "TDE" }, "geometry": { "type": "Point", "coordinates": [ 1.150676666666666, 7.51515 ] } },
{ "type": "Feature", "properties": { "region_nom": "Plateaux", "prefecture": "Ogou", "commune_no": "Ogou 1", "canton_nom": "Gnagna", "nom_locali": null, "organisme": null, "borne_font": "TDE" }, "geometry": { "type": "Point", "coordinates": [ 1.134335, 7.524525 ] } },
{ "type": "Feature", "properties": { "region_nom": "Plateaux", "prefecture": "Ogou", "commune_no": "Ogou 1", "canton_nom": "Gnagna", "nom_locali": null, "organisme": null, "borne_font": "TDE" }, "geometry": { "type": "Point", "coordinates": [ 1.135455, 7.524908333333332 ] } },
{ "type": "Feature", "properties": { "region_nom": "Plateaux", "prefecture": "Ogou", "commune_no": "Ogou 1", "canton_nom": "Gnagna", "nom_locali": null, "organisme": null, "borne_font": "TDE" }, "geometry": { "type": "Point", "coordinates": [ 1.13552, 7.525255 ] } },
{ "type": "Feature", "properties": { "region_nom": "Plateaux", "prefecture": "Ogou", "commune_no": "Ogou 1", "canton_nom": "Gnagna", "nom_locali": null, "organisme": null, "borne_font": "TDE" }, "geometry": { "type": "Point", "coordinates": [ 1.13064, 7.523973333333333 ] } },
{ "type": "Feature", "properties": { "region_nom": "Plateaux", "prefecture": "Ogou", "commune_no": "Ogou 1", "canton_nom": "Gnagna", "nom_locali": "Agounke Kope", "organisme": "Hydraulique villageoise", "borne_font": null }, "geometry": { "type": "Point", "coordinates": [ 1.212135, 7.505758333333333 ] } },
{ "type": "Feature", "properties": { "region_nom": "Plateaux", "prefecture": "Ogou", "commune_no": "Ogou 1", "canton_nom": "Djama", "nom_locali": "Madjamakou", "organisme": "Hydraulique villageoise", "borne_font": null }, "geometry": { "type": "Point", "coordinates": [ 1.265277778, 7.538611111 ] } },
{ "type": "Feature", "properties": { "region_nom": "Plateaux", "prefecture": "Ogou", "commune_no": "Ogou 1", "canton_nom": "Djama", "nom_locali": null, "organisme": null, "borne_font": "TDE" }, "geometry": { "type": "Point", "coordinates": [ 1.128395, 7.551683333333333 ] } },
{ "type": "Feature", "properties": { "region_nom": "Plateaux", "prefecture": "Ogou", "commune_no": "Ogou 1", "canton_nom": "Djama", "nom_locali": null, "organisme": null, "borne_font": "TDE" }, "geometry": { "type": "Point", "coordinates": [ 1.123536666666669, 7.548751666666669 ] } },
{ "type": "Feature", "properties": { "region_nom": "Plateaux", "prefecture": "Ogou", "commune_no": "Ogou 1", "canton_nom": "Djama", "nom_locali": null, "organisme": null, "borne_font": "TDE" }, "geometry": { "type": "Point", "coordinates": [ 1.12802, 7.55071666666666 ] } },
{ "type": "Feature", "properties": { "region_nom": "Plateaux", "prefecture": "Ogou", "commune_no": "Ogou 1", "canton_nom": "Djama", "nom_locali": null, "organisme": null, "borne_font": "TDE" }, "geometry": { "type": "Point", "coordinates": [ 1.119223333333333, 7.5386 ] } },
{ "type": "Feature", "properties": { "region_nom": "Plateaux", "prefecture": "Ogou", "commune_no": "Ogou 1", "canton_nom": "Gnagna", "nom_locali": null, "organisme": null, "borne_font": "TDE" }, "geometry": { "type": "Point", "coordinates": [ 1.119676666666667, 7.530368333333334 ] } },
{ "type": "Feature", "properties": { "region_nom": "Plateaux", "prefecture": "Ogou", "commune_no": "Ogou 1", "canton_nom": "Djama", "nom_locali": null, "organisme": null, "borne_font": "TDE" }, "geometry": { "type": "Point", "coordinates": [ 1.118795, 7.536866666666655 ] } },
{ "type": "Feature", "properties": { "region_nom": "Plateaux", "prefecture": "Ogou", "commune_no": "Ogou 1", "canton_nom": "Djama", "nom_locali": null, "organisme": null, "borne_font": "TDE" }, "geometry": { "type": "Point", "coordinates": [ 1.12157, 7.536835 ] } },
{ "type": "Feature", "properties": { "region_nom": "Plateaux", "prefecture": "Ogou", "commune_no": "Ogou 1", "canton_nom": "Djama", "nom_locali": "Demadeli", "organisme": "Hydraulique villageoise", "borne_font": null }, "geometry": { "type": "Point", "coordinates": [ 1.139166667, 7.554722222 ] } },
{ "type": "Feature", "properties": { "region_nom": "Plateaux", "prefecture": "Ogou", "commune_no": "Ogou 1", "canton_nom": "Djama", "nom_locali": null, "organisme": null, "borne_font": "TDE" }, "geometry": { "type": "Point", "coordinates": [ 1.117306666666667, 7.53806833333333 ] } },
{ "type": "Feature", "properties": { "region_nom": "Plateaux", "prefecture": "Ogou", "commune_no": "Ogou 1", "canton_nom": "Houdou", "nom_locali": "Elavagnon", "organisme": "Hydraulique villageoise", "borne_font": null }, "geometry": { "type": "Point", "coordinates": [ 1.164318333333333, 7.563525 ] } },
{ "type": "Feature", "properties": { "region_nom": "Plateaux", "prefecture": "Ogou", "commune_no": "Ogou 1", "canton_nom": "Djama", "nom_locali": "Demadeli", "organisme": "Hydraulique villageoise", "borne_font": null }, "geometry": { "type": "Point", "coordinates": [ 1.140381666666667, 7.556836666666667 ] } },
{ "type": "Feature", "properties": { "region_nom": "Plateaux", "prefecture": "Ogou", "commune_no": "Ogou 1", "canton_nom": "Djama", "nom_locali": "Demadeli", "organisme": "Hydraulique villageoise", "borne_font": null }, "geometry": { "type": "Point", "coordinates": [ 1.142396666666667, 7.55505 ] } },
{ "type": "Feature", "properties": { "region_nom": "Plateaux", "prefecture": "Ogou", "commune_no": "Ogou 1", "canton_nom": "Houdou", "nom_locali": "Awagome", "organisme": "Hydraulique villageoise", "borne_font": null }, "geometry": { "type": "Point", "coordinates": [ 1.185735, 7.647578333333332 ] } },
{ "type": "Feature", "properties": { "region_nom": "Plateaux", "prefecture": "Ogou", "commune_no": "Ogou 1", "canton_nom": "Houdou", "nom_locali": "Awagome", "organisme": "Hydraulique villageoise", "borne_font": null }, "geometry": { "type": "Point", "coordinates": [ 1.186525, 7.64864 ] } },
{ "type": "Feature", "properties": { "region_nom": "Plateaux", "prefecture": "Ogou", "commune_no": "Ogou 1", "canton_nom": "Houdou", "nom_locali": "Awagome", "organisme": "Hydraulique villageoise", "borne_font": null }, "geometry": { "type": "Point", "coordinates": [ 1.18362, 7.643186666666666 ] } },
{ "type": "Feature", "properties": { "region_nom": "Plateaux", "prefecture": "Ogou", "commune_no": "Ogou 1", "canton_nom": "Houdou", "nom_locali": "Agadja", "organisme": "Hydraulique villageoise", "borne_font": null }, "geometry": { "type": "Point", "coordinates": [ 1.191901666666667, 7.676058333333333 ] } },
{ "type": "Feature", "properties": { "region_nom": "Plateaux", "prefecture": "Ogou", "commune_no": "Ogou 1", "canton_nom": "Houdou", "nom_locali": "Awagome", "organisme": "Hydraulique villageoise", "borne_font": null }, "geometry": { "type": "Point", "coordinates": [ 1.181656666666667, 7.648258333333334 ] } },
{ "type": "Feature", "properties": { "region_nom": "Plateaux", "prefecture": "Ogou", "commune_no": "Ogou 1", "canton_nom": "Houdou", "nom_locali": "Awagome", "organisme": "Hydraulique villageoise", "borne_font": null }, "geometry": { "type": "Point", "coordinates": [ 1.182311666666666, 7.645553333333331 ] } },
{ "type": "Feature", "properties": { "region_nom": "Plateaux", "prefecture": "Ogou", "commune_no": "Ogou 1", "canton_nom": "Houdou", "nom_locali": "Ahodonmon", "organisme": "Hydraulique villageoise", "borne_font": null }, "geometry": { "type": "Point", "coordinates": [ 1.23932, 7.66812 ] } },
{ "type": "Feature", "properties": { "region_nom": "Plateaux", "prefecture": "Ogou", "commune_no": "Ogou 1", "canton_nom": "Houdou", "nom_locali": "Fetigbe", "organisme": "Hydraulique villageoise", "borne_font": null }, "geometry": { "type": "Point", "coordinates": [ 1.264201666666667, 7.66235 ] } },
{ "type": "Feature", "properties": { "region_nom": "Plateaux", "prefecture": "Ogou", "commune_no": "Ogou 1", "canton_nom": "Gnagna", "nom_locali": null, "organisme": null, "borne_font": "TDE" }, "geometry": { "type": "Point", "coordinates": [ 1.131568333333336, 7.519061666666664 ] } },
{ "type": "Feature", "properties": { "region_nom": "Plateaux", "prefecture": "Ogou", "commune_no": "Ogou 1", "canton_nom": "Gnagna", "nom_locali": null, "organisme": null, "borne_font": "TDE" }, "geometry": { "type": "Point", "coordinates": [ 1.132443333333337, 7.52201 ] } },
{ "type": "Feature", "properties": { "region_nom": "Plateaux", "prefecture": "Ogou", "commune_no": "Ogou 1", "canton_nom": "Gnagna", "nom_locali": null, "organisme": null, "borne_font": "TDE" }, "geometry": { "type": "Point", "coordinates": [ 1.127743333333334, 7.522778333333332 ] } },
{ "type": "Feature", "properties": { "region_nom": "Plateaux", "prefecture": "Ogou", "commune_no": "Ogou 1", "canton_nom": "Gnagna", "nom_locali": null, "organisme": null, "borne_font": "TDE" }, "geometry": { "type": "Point", "coordinates": [ 1.128736666666671, 7.527548333333321 ] } },
{ "type": "Feature", "properties": { "region_nom": "Plateaux", "prefecture": "Ogou", "commune_no": "Ogou 1", "canton_nom": "Gnagna", "nom_locali": null, "organisme": null, "borne_font": "TDE" }, "geometry": { "type": "Point", "coordinates": [ 1.12500666666667, 7.52866 ] } },
{ "type": "Feature", "properties": { "region_nom": "Plateaux", "prefecture": "Ogou", "commune_no": "Ogou 1", "canton_nom": "Gnagna", "nom_locali": null, "organisme": null, "borne_font": "TDE" }, "geometry": { "type": "Point", "coordinates": [ 1.125673333333333, 7.527728333333331 ] } },
{ "type": "Feature", "properties": { "region_nom": "Plateaux", "prefecture": "Ogou", "commune_no": "Ogou 1", "canton_nom": "Gnagna", "nom_locali": null, "organisme": null, "borne_font": "TDE" }, "geometry": { "type": "Point", "coordinates": [ 1.125911666666666, 7.526841666666669 ] } },
{ "type": "Feature", "properties": { "region_nom": "Plateaux", "prefecture": "Ogou", "commune_no": "Ogou 1", "canton_nom": "Gnagna", "nom_locali": null, "organisme": null, "borne_font": "TDE" }, "geometry": { "type": "Point", "coordinates": [ 1.125858333333333, 7.528568333333334 ] } },
{ "type": "Feature", "properties": { "region_nom": "Plateaux", "prefecture": "Ogou", "commune_no": "Ogou 1", "canton_nom": "Houdou", "nom_locali": "Okpate Olodji", "organisme": "Hydraulique villageoise", "borne_font": null }, "geometry": { "type": "Point", "coordinates": [ 1.122638333333334, 7.695755 ] } },
{ "type": "Feature", "properties": { "region_nom": "Plateaux", "prefecture": "Ogou", "commune_no": "Ogou 1", "canton_nom": "Gnagna", "nom_locali": null, "organisme": null, "borne_font": "TDE" }, "geometry": { "type": "Point", "coordinates": [ 1.127151666666668, 7.527555 ] } },
{ "type": "Feature", "properties": { "region_nom": "Plateaux", "prefecture": "Ogou", "commune_no": "Ogou 1", "canton_nom": "Djama", "nom_locali": "Yoro Djama", "organisme": "Hydraulique villageoise", "borne_font": null }, "geometry": { "type": "Point", "coordinates": [ 1.178213333333333, 7.565308333333332 ] } },
{ "type": "Feature", "properties": { "region_nom": "Plateaux", "prefecture": "Ogou", "commune_no": "Ogou 1", "canton_nom": "Gnagna", "nom_locali": null, "organisme": null, "borne_font": "TDE" }, "geometry": { "type": "Point", "coordinates": [ 1.127233333333336, 7.528406666666664 ] } },
{ "type": "Feature", "properties": { "region_nom": "Plateaux", "prefecture": "Ogou", "commune_no": "Ogou 1", "canton_nom": "Djama", "nom_locali": "Oguedje", "organisme": "Hydraulique villageoise", "borne_font": null }, "geometry": { "type": "Point", "coordinates": [ 1.217975, 7.583375 ] } },
{ "type": "Feature", "properties": { "region_nom": "Plateaux", "prefecture": "Ogou", "commune_no": "Ogou 1", "canton_nom": "Gnagna", "nom_locali": null, "organisme": null, "borne_font": "TDE" }, "geometry": { "type": "Point", "coordinates": [ 1.127406666666666, 7.529695 ] } },
{ "type": "Feature", "properties": { "region_nom": "Plateaux", "prefecture": "Ogou", "commune_no": "Ogou 1", "canton_nom": "Djama", "nom_locali": "Matekpo Atake", "organisme": "Hydraulique villageoise", "borne_font": null }, "geometry": { "type": "Point", "coordinates": [ 1.239593333333334, 7.563808333333333 ] } },
{ "type": "Feature", "properties": { "region_nom": "Plateaux", "prefecture": "Ogou", "commune_no": "Ogou 1", "canton_nom": "Gnagna", "nom_locali": null, "organisme": null, "borne_font": "TDE" }, "geometry": { "type": "Point", "coordinates": [ 1.128513333333336, 7.523283333333326 ] } },
{ "type": "Feature", "properties": { "region_nom": "Plateaux", "prefecture": "Ogou", "commune_no": "Ogou 1", "canton_nom": "Djama", "nom_locali": "Adjomi Atakpa", "organisme": "Hydraulique villageoise", "borne_font": null }, "geometry": { "type": "Point", "coordinates": [ 1.208606666666667, 7.545493333333334 ] } },
{ "type": "Feature", "properties": { "region_nom": "Plateaux", "prefecture": "Ogou", "commune_no": "Ogou 1", "canton_nom": "Djama", "nom_locali": null, "organisme": null, "borne_font": "Hydraulique villageoise" }, "geometry": { "type": "Point", "coordinates": [ 1.222038333333334, 7.614578333333331 ] } },
{ "type": "Feature", "properties": { "region_nom": "Plateaux", "prefecture": "Ogou", "commune_no": "Ogou 1", "canton_nom": "Gnagna", "nom_locali": null, "organisme": null, "borne_font": "TDE" }, "geometry": { "type": "Point", "coordinates": [ 1.127781666666666, 7.52786 ] } },
{ "type": "Feature", "properties": { "region_nom": "Plateaux", "prefecture": "Ogou", "commune_no": "Ogou 1", "canton_nom": "Djama", "nom_locali": "Sato Kope", "organisme": "Hydraulique villageoise", "borne_font": null }, "geometry": { "type": "Point", "coordinates": [ 1.192965, 7.573716666666669 ] } },
{ "type": "Feature", "properties": { "region_nom": "Plateaux", "prefecture": "Ogou", "commune_no": "Ogou 1", "canton_nom": "Gnagna", "nom_locali": null, "organisme": null, "borne_font": "TDE" }, "geometry": { "type": "Point", "coordinates": [ 1.128053333333334, 7.524925 ] } },
{ "type": "Feature", "properties": { "region_nom": "Plateaux", "prefecture": "Ogou", "commune_no": "Ogou 1", "canton_nom": "Djama", "nom_locali": "Maroumi Ibah", "organisme": "Hydraulique villageoise", "borne_font": null }, "geometry": { "type": "Point", "coordinates": [ 1.235011666666667, 7.609676666666666 ] } },
{ "type": "Feature", "properties": { "region_nom": "Plateaux", "prefecture": "Ogou", "commune_no": "Ogou 1", "canton_nom": "Gnagna", "nom_locali": null, "organisme": null, "borne_font": "TDE" }, "geometry": { "type": "Point", "coordinates": [ 1.129346666666666, 7.525455 ] } },
{ "type": "Feature", "properties": { "region_nom": "Plateaux", "prefecture": "Ogou", "commune_no": "Ogou 1", "canton_nom": "Gnagna", "nom_locali": null, "organisme": null, "borne_font": "TDE" }, "geometry": { "type": "Point", "coordinates": [ 1.126693333333333, 7.526275 ] } },
{ "type": "Feature", "properties": { "region_nom": "Plateaux", "prefecture": "Ogou", "commune_no": "Ogou 1", "canton_nom": "Gnagna", "nom_locali": "Talo Kofan", "organisme": "Hydraulique villageoise", "borne_font": null }, "geometry": { "type": "Point", "coordinates": [ 1.157638333333333, 7.489171666666668 ] } },
{ "type": "Feature", "properties": { "region_nom": "Plateaux", "prefecture": "Ogou", "commune_no": "Ogou 1", "canton_nom": "Djama", "nom_locali": "Mawuli Kope", "organisme": "Hydraulique villageoise", "borne_font": null }, "geometry": { "type": "Point", "coordinates": [ 1.253466666666667, 7.632406666666665 ] } },
{ "type": "Feature", "properties": { "region_nom": "Plateaux", "prefecture": "Ogou", "commune_no": "Ogou 1", "canton_nom": "Gnagna", "nom_locali": null, "organisme": null, "borne_font": "TDE" }, "geometry": { "type": "Point", "coordinates": [ 1.130523333333334, 7.525031666666666 ] } },
{ "type": "Feature", "properties": { "region_nom": "Plateaux", "prefecture": "Ogou", "commune_no": "Ogou 1", "canton_nom": "Gnagna", "nom_locali": null, "organisme": null, "borne_font": "TDE" }, "geometry": { "type": "Point", "coordinates": [ 1.132273333333334, 7.525346666666667 ] } },
{ "type": "Feature", "properties": { "region_nom": "Plateaux", "prefecture": "Ogou", "commune_no": "Ogou 1", "canton_nom": "Gnagna", "nom_locali": null, "organisme": null, "borne_font": "TDE" }, "geometry": { "type": "Point", "coordinates": [ 1.131778333333334, 7.524226666666667 ] } },
{ "type": "Feature", "properties": { "region_nom": "Plateaux", "prefecture": "Ogou", "commune_no": "Ogou 1", "canton_nom": "Gnagna", "nom_locali": null, "organisme": null, "borne_font": "TDE" }, "geometry": { "type": "Point", "coordinates": [ 1.128038333333333, 7.526291666666677 ] } },
{ "type": "Feature", "properties": { "region_nom": "Plateaux", "prefecture": "Ogou", "commune_no": "Ogou 1", "canton_nom": "Gnagna", "nom_locali": null, "organisme": null, "borne_font": "TDE" }, "geometry": { "type": "Point", "coordinates": [ 1.12829, 7.52702 ] } },
{ "type": "Feature", "properties": { "region_nom": "Plateaux", "prefecture": "Ogou", "commune_no": "Ogou 1", "canton_nom": "Gnagna", "nom_locali": null, "organisme": null, "borne_font": "TDE" }, "geometry": { "type": "Point", "coordinates": [ 1.127896666666667, 7.525761666666663 ] } },
{ "type": "Feature", "properties": { "region_nom": "Plateaux", "prefecture": "Ogou", "commune_no": "Ogou 1", "canton_nom": "Djama", "nom_locali": "Matekpo Atake", "organisme": "Hydraulique villageoise", "borne_font": null }, "geometry": { "type": "Point", "coordinates": [ 1.239813333333334, 7.569086666666665 ] } },
{ "type": "Feature", "properties": { "region_nom": "Plateaux", "prefecture": "Ogou", "commune_no": "Ogou 1", "canton_nom": "Gnagna", "nom_locali": null, "organisme": null, "borne_font": "TDE" }, "geometry": { "type": "Point", "coordinates": [ 1.1268, 7.525078333333324 ] } },
{ "type": "Feature", "properties": { "region_nom": "Plateaux", "prefecture": "Ogou", "commune_no": "Ogou 1", "canton_nom": "Gnagna", "nom_locali": null, "organisme": null, "borne_font": "TDE" }, "geometry": { "type": "Point", "coordinates": [ 1.127061666666667, 7.526566666666658 ] } },
{ "type": "Feature", "properties": { "region_nom": "Plateaux", "prefecture": "Ogou", "commune_no": "Ogou 1", "canton_nom": "Djama", "nom_locali": null, "organisme": null, "borne_font": "TDE" }, "geometry": { "type": "Point", "coordinates": [ 1.146491666666666, 7.537878333333341 ] } },
{ "type": "Feature", "properties": { "region_nom": "Plateaux", "prefecture": "Ogou", "commune_no": "Ogou 1", "canton_nom": "Djama", "nom_locali": "Doufio", "organisme": "Hydraulique villageoise", "borne_font": null }, "geometry": { "type": "Point", "coordinates": [ 1.123923333333334, 7.553205 ] } },
{ "type": "Feature", "properties": { "region_nom": "Plateaux", "prefecture": "Ogou", "commune_no": "Ogou 1", "canton_nom": "Houdou", "nom_locali": "Agbedougbe", "organisme": "Hydraulique villageoise", "borne_font": null }, "geometry": { "type": "Point", "coordinates": [ 1.163327529614157, 7.583502591743064 ] } },
{ "type": "Feature", "properties": { "region_nom": "Plateaux", "prefecture": "Ogou", "commune_no": "Ogou 1", "canton_nom": "Houdou", "nom_locali": "Agotohui", "organisme": "Hydraulique villageoise", "borne_font": null }, "geometry": { "type": "Point", "coordinates": [ 1.182321666666667, 7.598866666666667 ] } },
{ "type": "Feature", "properties": { "region_nom": "Plateaux", "prefecture": "Ogou", "commune_no": "Ogou 1", "canton_nom": "Djama", "nom_locali": "Maroumi", "organisme": "Hydraulique villageoise", "borne_font": null }, "geometry": { "type": "Point", "coordinates": [ 1.16329, 7.531811666666665 ] } },
{ "type": "Feature", "properties": { "region_nom": "Plateaux", "prefecture": "Ogou", "commune_no": "Ogou 1", "canton_nom": "Djama", "nom_locali": "Atakpame", "organisme": "Hydraulique villageoise", "borne_font": null }, "geometry": { "type": "Point", "coordinates": [ 1.121365, 7.542158333333334 ] } },
{ "type": "Feature", "properties": { "region_nom": "Plateaux", "prefecture": "Ogou", "commune_no": "Ogou 1", "canton_nom": "Houdou", "nom_locali": "Djerehouye", "organisme": "Hydraulique villageoise", "borne_font": null }, "geometry": { "type": "Point", "coordinates": [ 1.175066666666667, 7.62021 ] } },
{ "type": "Feature", "properties": { "region_nom": "Plateaux", "prefecture": "Ogou", "commune_no": "Ogou 1", "canton_nom": "Houdou", "nom_locali": "Yoro Kpodji", "organisme": "Hydraulique villageoise", "borne_font": null }, "geometry": { "type": "Point", "coordinates": [ 1.158183333333333, 7.595445 ] } },
{ "type": "Feature", "properties": { "region_nom": "Plateaux", "prefecture": "Ogou", "commune_no": "Ogou 1", "canton_nom": "Houdou", "nom_locali": "Djerehouye", "organisme": "Hydraulique villageoise", "borne_font": null }, "geometry": { "type": "Point", "coordinates": [ 1.17834, 7.622415 ] } },
{ "type": "Feature", "properties": { "region_nom": "Plateaux", "prefecture": "Ogou", "commune_no": "Ogou 1", "canton_nom": "Gnagna", "nom_locali": "Agbo-fon", "organisme": "Hydraulique villageoise", "borne_font": null }, "geometry": { "type": "Point", "coordinates": [ 1.137666666666667, 7.507438333333333 ] } },
{ "type": "Feature", "properties": { "region_nom": "Plateaux", "prefecture": "Ogou", "commune_no": "Ogou 1", "canton_nom": "Houdou", "nom_locali": "Gbecon", "organisme": "Hydraulique villageoise", "borne_font": null }, "geometry": { "type": "Point", "coordinates": [ 1.155848333333333, 7.561566666666667 ] } },
{ "type": "Feature", "properties": { "region_nom": "Plateaux", "prefecture": "Ogou", "commune_no": "Ogou 1", "canton_nom": "Houdou", "nom_locali": null, "organisme": null, "borne_font": "Hydraulique villageoise" }, "geometry": { "type": "Point", "coordinates": [ 1.185751666666666, 7.649528333333342 ] } },
{ "type": "Feature", "properties": { "region_nom": "Plateaux", "prefecture": "Ogou", "commune_no": "Ogou 1", "canton_nom": "Djama", "nom_locali": "Madjamakou", "organisme": "Hydraulique villageoise", "borne_font": null }, "geometry": { "type": "Point", "coordinates": [ 1.265318333333334, 7.538436666666668 ] } },
{ "type": "Feature", "properties": { "region_nom": "Plateaux", "prefecture": "Ogou", "commune_no": "Ogou 1", "canton_nom": "Djama", "nom_locali": "Awoyo", "organisme": "Hydraulique villageoise", "borne_font": null }, "geometry": { "type": "Point", "coordinates": [ 1.171944444, 7.515 ] } },
{ "type": "Feature", "properties": { "region_nom": "Plateaux", "prefecture": "Ogou", "commune_no": "Ogou 1", "canton_nom": "Djama", "nom_locali": "Madjamakou", "organisme": "Hydraulique villageoise", "borne_font": null }, "geometry": { "type": "Point", "coordinates": [ 1.264223333333333, 7.535758333333331 ] } },
{ "type": "Feature", "properties": { "region_nom": "Plateaux", "prefecture": "Ogou", "commune_no": "Ogou 1", "canton_nom": "Djama", "nom_locali": "Madjamakou", "organisme": "Hydraulique villageoise", "borne_font": null }, "geometry": { "type": "Point", "coordinates": [ 1.264761666666667, 7.535708333333332 ] } },
{ "type": "Feature", "properties": { "region_nom": "Plateaux", "prefecture": "Ogou", "commune_no": "Ogou 1", "canton_nom": "Gnagna", "nom_locali": "Atchade Kope", "organisme": "Hydraulique villageoise", "borne_font": null }, "geometry": { "type": "Point", "coordinates": [ 1.227081666666666, 7.528431666666667 ] } },
{ "type": "Feature", "properties": { "region_nom": "Plateaux", "prefecture": "Ogou", "commune_no": "Ogou 1", "canton_nom": "Gnagna", "nom_locali": "Atchade Kope", "organisme": "Nsp", "borne_font": null }, "geometry": { "type": "Point", "coordinates": [ 1.227777778, 7.528333333 ] } },
{ "type": "Feature", "properties": { "region_nom": "Plateaux", "prefecture": "Ogou", "commune_no": "Ogou 1", "canton_nom": "Gnagna", "nom_locali": "Akpaka", "organisme": "Hydraulique villageoise", "borne_font": null }, "geometry": { "type": "Point", "coordinates": [ 1.210475, 7.514673333333334 ] } },
{ "type": "Feature", "properties": { "region_nom": "Plateaux", "prefecture": "Ogou", "commune_no": "Ogou 1", "canton_nom": "Gnagna", "nom_locali": "Adja Yao", "organisme": "Hydraulique villageoise", "borne_font": null }, "geometry": { "type": "Point", "coordinates": [ 1.220143333333334, 7.516901666666665 ] } },
{ "type": "Feature", "properties": { "region_nom": "Plateaux", "prefecture": "Ogou", "commune_no": "Ogou 1", "canton_nom": "Gnagna", "nom_locali": null, "organisme": null, "borne_font": "TDE" }, "geometry": { "type": "Point", "coordinates": [ 1.129343333333336, 7.512988333333333 ] } },
{ "type": "Feature", "properties": { "region_nom": "Plateaux", "prefecture": "Ogou", "commune_no": "Ogou 1", "canton_nom": "Gnagna", "nom_locali": null, "organisme": null, "borne_font": "TDE" }, "geometry": { "type": "Point", "coordinates": [ 1.13140166666667, 7.514206666666666 ] } },
{ "type": "Feature", "properties": { "region_nom": "Plateaux", "prefecture": "Ogou", "commune_no": "Ogou 1", "canton_nom": "Gnagna", "nom_locali": null, "organisme": null, "borne_font": "TDE" }, "geometry": { "type": "Point", "coordinates": [ 1.130205, 7.51603 ] } },
{ "type": "Feature", "properties": { "region_nom": "Plateaux", "prefecture": "Ogou", "commune_no": "Ogou 1", "canton_nom": "Gnagna", "nom_locali": null, "organisme": null, "borne_font": "TDE" }, "geometry": { "type": "Point", "coordinates": [ 1.130301666666667, 7.517446666666666 ] } },
{ "type": "Feature", "properties": { "region_nom": "Plateaux", "prefecture": "Ogou", "commune_no": "Ogou 1", "canton_nom": "Gnagna", "nom_locali": null, "organisme": null, "borne_font": "TDE" }, "geometry": { "type": "Point", "coordinates": [ 1.128795, 7.52178 ] } },
{ "type": "Feature", "properties": { "region_nom": "Plateaux", "prefecture": "Ogou", "commune_no": "Ogou 1", "canton_nom": "Gnagna", "nom_locali": null, "organisme": null, "borne_font": "TDE" }, "geometry": { "type": "Point", "coordinates": [ 1.127751666666667, 7.52172 ] } },
{ "type": "Feature", "properties": { "region_nom": "Plateaux", "prefecture": "Ogou", "commune_no": "Ogou 1", "canton_nom": "Gnagna", "nom_locali": null, "organisme": null, "borne_font": "TDE" }, "geometry": { "type": "Point", "coordinates": [ 1.128635, 7.516441666666652 ] } },
{ "type": "Feature", "properties": { "region_nom": "Plateaux", "prefecture": "Ogou", "commune_no": "Ogou 1", "canton_nom": "Gnagna", "nom_locali": null, "organisme": null, "borne_font": "TDE" }, "geometry": { "type": "Point", "coordinates": [ 1.128925, 7.520891666666667 ] } },
{ "type": "Feature", "properties": { "region_nom": "Plateaux", "prefecture": "Ogou", "commune_no": "Ogou 1", "canton_nom": "Gnagna", "nom_locali": "Talo Sane", "organisme": "Hydraulique villageoise", "borne_font": null }, "geometry": { "type": "Point", "coordinates": [ 1.190648333333334, 7.48729 ] } },
{ "type": "Feature", "properties": { "region_nom": "Plateaux", "prefecture": "Ogou", "commune_no": "Ogou 1", "canton_nom": "Gnagna", "nom_locali": null, "organisme": null, "borne_font": "TDE" }, "geometry": { "type": "Point", "coordinates": [ 1.13343, 7.525225 ] } },
{ "type": "Feature", "properties": { "region_nom": "Plateaux", "prefecture": "Ogou", "commune_no": "Ogou 1", "canton_nom": "Gnagna", "nom_locali": null, "organisme": null, "borne_font": "TDE" }, "geometry": { "type": "Point", "coordinates": [ 1.13317, 7.526638333333326 ] } },
{ "type": "Feature", "properties": { "region_nom": "Plateaux", "prefecture": "Ogou", "commune_no": "Ogou 1", "canton_nom": "Gnagna", "nom_locali": null, "organisme": null, "borne_font": "TDE" }, "geometry": { "type": "Point", "coordinates": [ 1.135343333333333, 7.525446666666665 ] } },
{ "type": "Feature", "properties": { "region_nom": "Plateaux", "prefecture": "Ogou", "commune_no": "Ogou 1", "canton_nom": "Djama", "nom_locali": "Adougbelan", "organisme": "Hydraulique villageoise", "borne_font": null }, "geometry": { "type": "Point", "coordinates": [ 1.269501666666667, 7.64372666666667 ] } },
{ "type": "Feature", "properties": { "region_nom": "Plateaux", "prefecture": "Ogou", "commune_no": "Ogou 1", "canton_nom": "Gnagna", "nom_locali": null, "organisme": null, "borne_font": "TDE" }, "geometry": { "type": "Point", "coordinates": [ 1.13494833333333, 7.525816666666669 ] } },
{ "type": "Feature", "properties": { "region_nom": "Plateaux", "prefecture": "Ogou", "commune_no": "Ogou 1", "canton_nom": "Djama", "nom_locali": null, "organisme": null, "borne_font": "TDE" }, "geometry": { "type": "Point", "coordinates": [ 1.121493333333333, 7.53922666666667 ] } },
{ "type": "Feature", "properties": { "region_nom": "Plateaux", "prefecture": "Ogou", "commune_no": "Ogou 1", "canton_nom": "Djama", "nom_locali": "Agbaflo", "organisme": "Hydraulique villageoise", "borne_font": null }, "geometry": { "type": "Point", "coordinates": [ 1.268971666666667, 7.644946666666668 ] } },
{ "type": "Feature", "properties": { "region_nom": "Plateaux", "prefecture": "Ogou", "commune_no": "Ogou 1", "canton_nom": "Houdou", "nom_locali": null, "organisme": null, "borne_font": "Hydraulique villageoise" }, "geometry": { "type": "Point", "coordinates": [ 1.166063333333335, 7.590738333333338 ] } },
{ "type": "Feature", "properties": { "region_nom": "Plateaux", "prefecture": "Ogou", "commune_no": "Ogou 1", "canton_nom": "Gnagna", "nom_locali": null, "organisme": null, "borne_font": "TDE" }, "geometry": { "type": "Point", "coordinates": [ 1.124098333333336, 7.529996666666666 ] } },
{ "type": "Feature", "properties": { "region_nom": "Plateaux", "prefecture": "Ogou", "commune_no": "Ogou 1", "canton_nom": "Djama", "nom_locali": "Bocco", "organisme": "Hydraulique villageoise", "borne_font": null }, "geometry": { "type": "Point", "coordinates": [ 1.217708333333333, 7.588353333333333 ] } },
{ "type": "Feature", "properties": { "region_nom": "Plateaux", "prefecture": "Ogou", "commune_no": "Ogou 1", "canton_nom": "Djama", "nom_locali": null, "organisme": null, "borne_font": "TDE" }, "geometry": { "type": "Point", "coordinates": [ 1.126128333333333, 7.53216 ] } },
{ "type": "Feature", "properties": { "region_nom": "Plateaux", "prefecture": "Ogou", "commune_no": "Ogou 1", "canton_nom": "Djama", "nom_locali": null, "organisme": null, "borne_font": "TDE" }, "geometry": { "type": "Point", "coordinates": [ 1.149056666666667, 7.52503 ] } },
{ "type": "Feature", "properties": { "region_nom": "Plateaux", "prefecture": "Ogou", "commune_no": "Ogou 1", "canton_nom": "Djama", "nom_locali": "Bocco", "organisme": "Hydraulique villageoise", "borne_font": null }, "geometry": { "type": "Point", "coordinates": [ 1.215006666666667, 7.58727 ] } },
{ "type": "Feature", "properties": { "region_nom": "Plateaux", "prefecture": "Ogou", "commune_no": "Ogou 1", "canton_nom": "Gnagna", "nom_locali": null, "organisme": null, "borne_font": "TDE" }, "geometry": { "type": "Point", "coordinates": [ 1.12701, 7.521718333333329 ] } },
{ "type": "Feature", "properties": { "region_nom": "Plateaux", "prefecture": "Ogou", "commune_no": "Ogou 1", "canton_nom": "Djama", "nom_locali": null, "organisme": null, "borne_font": "TDE" }, "geometry": { "type": "Point", "coordinates": [ 1.121558333333333, 7.538415 ] } },
{ "type": "Feature", "properties": { "region_nom": "Plateaux", "prefecture": "Ogou", "commune_no": "Ogou 1", "canton_nom": "Djama", "nom_locali": "Itchinri", "organisme": "Hydraulique villageoise", "borne_font": null }, "geometry": { "type": "Point", "coordinates": [ 1.218156666666667, 7.56389 ] } },
{ "type": "Feature", "properties": { "region_nom": "Plateaux", "prefecture": "Ogou", "commune_no": "Ogou 1", "canton_nom": "Djama", "nom_locali": null, "organisme": null, "borne_font": "TDE" }, "geometry": { "type": "Point", "coordinates": [ 1.123326666666667, 7.53415 ] } },
{ "type": "Feature", "properties": { "region_nom": "Plateaux", "prefecture": "Ogou", "commune_no": "Ogou 1", "canton_nom": "Djama", "nom_locali": "Awoyo", "organisme": "Hydraulique villageoise", "borne_font": null }, "geometry": { "type": "Point", "coordinates": [ 1.172076666666666, 7.518081666666666 ] } },
{ "type": "Feature", "properties": { "region_nom": "Plateaux", "prefecture": "Ogou", "commune_no": "Ogou 1", "canton_nom": "Djama", "nom_locali": "Ikoe Atchou", "organisme": "Hydraulique villageoise", "borne_font": null }, "geometry": { "type": "Point", "coordinates": [ 1.220691666666667, 7.576548333333333 ] } },
{ "type": "Feature", "properties": { "region_nom": "Plateaux", "prefecture": "Ogou", "commune_no": "Ogou 1", "canton_nom": "Djama", "nom_locali": null, "organisme": null, "borne_font": "TDE" }, "geometry": { "type": "Point", "coordinates": [ 1.12201, 7.535506666666669 ] } },
{ "type": "Feature", "properties": { "region_nom": "Plateaux", "prefecture": "Ogou", "commune_no": "Ogou 1", "canton_nom": "Djama", "nom_locali": null, "organisme": null, "borne_font": "TDE" }, "geometry": { "type": "Point", "coordinates": [ 1.148455, 7.523255 ] } },
{ "type": "Feature", "properties": { "region_nom": "Plateaux", "prefecture": "Ogou", "commune_no": "Ogou 1", "canton_nom": "Djama", "nom_locali": "Atakpame", "organisme": "Hydraulique villageoise", "borne_font": null }, "geometry": { "type": "Point", "coordinates": [ 1.16216, 7.51752 ] } },
{ "type": "Feature", "properties": { "region_nom": "Plateaux", "prefecture": "Ogou", "commune_no": "Ogou 1", "canton_nom": "Djama", "nom_locali": "Matekpo Koffi", "organisme": "Hydraulique villageoise", "borne_font": null }, "geometry": { "type": "Point", "coordinates": [ 1.230905, 7.576201666666665 ] } },
{ "type": "Feature", "properties": { "region_nom": "Plateaux", "prefecture": "Ogou", "commune_no": "Ogou 1", "canton_nom": "Djama", "nom_locali": null, "organisme": null, "borne_font": "TDE" }, "geometry": { "type": "Point", "coordinates": [ 1.125468333333335, 7.541053333333341 ] } },
{ "type": "Feature", "properties": { "region_nom": "Plateaux", "prefecture": "Ogou", "commune_no": "Ogou 1", "canton_nom": "Gnagna", "nom_locali": null, "organisme": null, "borne_font": "TDE" }, "geometry": { "type": "Point", "coordinates": [ 1.142753333333333, 7.518538333333336 ] } }
]
}
