{
"type": "FeatureCollection",
"name": "Ogou_1",
"crs": { "type": "name", "properties": { "name": "urn:ogc:def:crs:OGC:1.3:CRS84" } },
"features": [
{ "type": "Feature", "properties": { "fid": 1, "region_id": "B", "region_nom": "Plateaux", "prefecture": "B11", "prefectu_1": "Ogou", "commune_id": "B11058", "commune_no": "Ogou 1", "area": 415.38282000116646 }, "geometry": { "type": "MultiPolygon", "coordinates": [ [ [ [ 1.192131290900119, 7.711014553868385 ], [ 1.192601286857297, 7.70585987405649 ], [ 1.189291975446425, 7.689007606220211 ], [ 1.193287572823435, 7.679371167088054 ], [ 1.204569257373053, 7.677725921273126 ], [ 1.241670419361823, 7.682795453222126 ], [ 1.252051362616441, 7.682197337619971 ], [ 1.256190950287592, 7.682527427549789 ], [ 1.265924240791002, 7.680907324324504 ], [ 1.273099403271988, 7.677106311639049 ], [ 1.278976252190931, 7.673159369864308 ], [ 1.282657438977596, 7.668859867657523 ], [ 1.289276126875226, 7.662239121917641 ], [ 1.29012174411724, 7.658569574911698 ], [ 1.290471226329368, 7.657053002440796 ], [ 1.292361843328028, 7.648848694135753 ], [ 1.292333224686081, 7.646992018283891 ], [ 1.293019830939336, 7.645306732072461 ], [ 1.294311587178487, 7.643921532488806 ], [ 1.295942244402693, 7.642607582748424 ], [ 1.297687248741826, 7.641093686795044 ], [ 1.298660048860196, 7.639694013051308 ], [ 1.298888875105574, 7.637679351604524 ], [ 1.298717159574218, 7.635508507889487 ], [ 1.297487045476629, 7.632823437548341 ], [ 1.296225334268873, 7.630779149585873 ], [ 1.294623301028336, 7.622095604594781 ], [ 1.292871563456924, 7.620127859086309 ], [ 1.288809168111926, 7.617442844209896 ], [ 1.28523317318113, 7.615300498404697 ], [ 1.283742765258321, 7.613883645042548 ], [ 1.283027541004203, 7.612141247268386 ], [ 1.283027541963623, 7.609570456368851 ], [ 1.283784726331557, 7.606359164364599 ], [ 1.284653279410577, 7.604046725540535 ], [ 1.286607425696603, 7.602529224666972 ], [ 1.29080514848206, 7.601300772926286 ], [ 1.29500857015752, 7.599071073640367 ], [ 1.297814174368584, 7.597851125931368 ], [ 1.299986267667125, 7.597580045767873 ], [ 1.301524849607836, 7.598348175205609 ], [ 1.302701480505372, 7.599748807130648 ], [ 1.30383278619269, 7.601736828359564 ], [ 1.306140594332338, 7.603318199900407 ], [ 1.309398669532774, 7.603092290895108 ], [ 1.312454078722622, 7.601341389584368 ], [ 1.315980866337182, 7.598610531117055 ], [ 1.317132504762669, 7.596095274436212 ], [ 1.317132506455223, 7.593580017571627 ], [ 1.315333112617357, 7.591711569533786 ], [ 1.312025828785672, 7.589588034903229 ], [ 1.308858922496207, 7.586641627192036 ], [ 1.307203533271763, 7.583623295864976 ], [ 1.306267771808319, 7.580676887998761 ], [ 1.305902714386153, 7.576119033440765 ], [ 1.306046719032703, 7.572453950296029 ], [ 1.30669447610436, 7.570944840748725 ], [ 1.307989987692356, 7.570226164464229 ], [ 1.312524409341688, 7.568429586386281 ], [ 1.316302166650164, 7.567244559345798 ], [ 1.318101561138024, 7.56602286498862 ], [ 1.322132101018651, 7.563795080476041 ], [ 1.325083134727257, 7.560704883189322 ], [ 1.327242408371885, 7.55890830435312 ], [ 1.330409315820159, 7.557471007905436 ], [ 1.333720227406628, 7.556967934778537 ], [ 1.336455254096334, 7.557471010250012 ], [ 1.341493556974722, 7.558908310086998 ], [ 1.346315855362501, 7.559555065342979 ], [ 1.348259252906373, 7.559411330518827 ], [ 1.34905101272491, 7.558189636184505 ], [ 1.349698769988915, 7.555530699919971 ], [ 1.350562401402925, 7.554165271048641 ], [ 1.350419177166021, 7.550892417240085 ], [ 1.349339542203079, 7.547083653932518 ], [ 1.348331778843336, 7.544927678904556 ], [ 1.346892264213036, 7.543346700833453 ], [ 1.344804992958857, 7.542125005556048 ], [ 1.342717721528028, 7.542484287100221 ], [ 1.341422209792264, 7.543634112963471 ], [ 1.340414574413542, 7.543849715790011 ], [ 1.337967425267689, 7.543059226725657 ], [ 1.336239903807654, 7.541190721499253 ], [ 1.336096031343149, 7.538569352785724 ], [ 1.336887792708805, 7.533107689108685 ], [ 1.318944459358958, 7.52918936638882 ], [ 1.314136198774545, 7.525775868337776 ], [ 1.308373626047245, 7.524160879460243 ], [ 1.302280714919777, 7.524050766487715 ], [ 1.294499407802485, 7.526436545065903 ], [ 1.288663426480611, 7.52885902787623 ], [ 1.28018473682669, 7.524307696864081 ], [ 1.271045370387111, 7.523830540799947 ], [ 1.258712731454496, 7.526803587687281 ], [ 1.251298466874058, 7.530694241528627 ], [ 1.24193887448578, 7.529299478848819 ], [ 1.235809259169895, 7.523793836813172 ], [ 1.230817477024506, 7.513369820150201 ], [ 1.229734700817186, 7.492136393077056 ], [ 1.227697612830494, 7.487823639611262 ], [ 1.224174002063015, 7.483474182661269 ], [ 1.220907320553078, 7.478372287057416 ], [ 1.216661831542938, 7.474048995329203 ], [ 1.215759545184645, 7.474330228010574 ], [ 1.207023926262372, 7.475394651687746 ], [ 1.200674085220238, 7.475541469629436 ], [ 1.195535485609021, 7.474513749251248 ], [ 1.191975169588048, 7.474495397122866 ], [ 1.178229416149467, 7.472293140615008 ], [ 1.163547703406513, 7.474752326786023 ], [ 1.153362265029958, 7.480239617101463 ], [ 1.144328284774698, 7.479976502441497 ], [ 1.143280762749703, 7.488666750031858 ], [ 1.142450670383677, 7.497180989596389 ], [ 1.141461029580082, 7.501543708856925 ], [ 1.139872466251068, 7.501340304422834 ], [ 1.132541116262437, 7.50350911912123 ], [ 1.125864514744757, 7.506049269580384 ], [ 1.120539239186835, 7.513828441876574 ], [ 1.11719815384216, 7.520131341405185 ], [ 1.113859788306516, 7.528307417431988 ], [ 1.113065049984764, 7.530926984440272 ], [ 1.112475696660201, 7.533967234689526 ], [ 1.111717607650779, 7.537877932087714 ], [ 1.11481743322289, 7.549546747410592 ], [ 1.11926845580049, 7.557008428703165 ], [ 1.124991293282067, 7.558913542794421 ], [ 1.132860064198821, 7.561056789963155 ], [ 1.141732991756908, 7.562727404772915 ], [ 1.144064220128685, 7.573329046699283 ], [ 1.145170144418079, 7.579513894058241 ], [ 1.147713122408964, 7.592040953274545 ], [ 1.148957350290233, 7.596942488590098 ], [ 1.14930337343911, 7.601176938073744 ], [ 1.149925486031748, 7.606561665144618 ], [ 1.150547081286357, 7.616263016779063 ], [ 1.15061623342375, 7.620336103438794 ], [ 1.151376653428305, 7.625444679192597 ], [ 1.151307758371766, 7.631136702774961 ], [ 1.150132679647512, 7.63762602956239 ], [ 1.146466680322514, 7.646689526428162 ], [ 1.140494814129655, 7.659740609587914 ], [ 1.138340462657933, 7.663652555393264 ], [ 1.136593644574956, 7.666390173669024 ], [ 1.13309327557498, 7.670647095327486 ], [ 1.129169703601567, 7.674565574414244 ], [ 1.126586061003207, 7.677665346548349 ], [ 1.12559176440995, 7.679705128731582 ], [ 1.123791075230585, 7.68469278059 ], [ 1.1222690682432, 7.688530830746948 ], [ 1.118780742962325, 7.694225556866297 ], [ 1.117908694225981, 7.696503471407176 ], [ 1.116094407114245, 7.701622129274702 ], [ 1.113216720045816, 7.707050147552851 ], [ 1.118887088405899, 7.708097024598491 ], [ 1.123281393269006, 7.709094440871065 ], [ 1.128075174209117, 7.709227429788209 ], [ 1.133201862737463, 7.709426901324919 ], [ 1.139885502433366, 7.709573955198167 ], [ 1.143480852639695, 7.709507461744654 ], [ 1.144546143429008, 7.709906427601402 ], [ 1.145345097989062, 7.71043837059609 ], [ 1.146210649664083, 7.712499682419286 ], [ 1.147542248265571, 7.717021261338862 ], [ 1.148607511363538, 7.720678413943772 ], [ 1.148745590242056, 7.730353670774114 ], [ 1.149411403763892, 7.733212902520319 ], [ 1.151475387086874, 7.736604089745006 ], [ 1.153938847577628, 7.738465919800321 ], [ 1.157068122395314, 7.7396628061686 ], [ 1.162061642357296, 7.740128267895901 ], [ 1.16927936177611, 7.740119752799998 ], [ 1.173540498029421, 7.739587799143482 ], [ 1.177868232462554, 7.737858959355582 ], [ 1.182406138336396, 7.734443787558114 ], [ 1.18460326346936, 7.731850533363358 ], [ 1.189667827580524, 7.722251998941373 ], [ 1.191398906109245, 7.716201063667493 ], [ 1.192131290900119, 7.711014553868385 ] ] ] ] } }
]
}
